{
  "type": "FeatureCollection",
  "features": [
    {
      "type": "Feature",
      "properties": {
        "norad_id": 35669,
        "name": "COSMOS 2251 DEB",
        "group": "cosmos-2251-debris",
        "lat": 31.862058370208032,
        "lon": -37.023800585452435,
        "alt_km": 1169.7840577781108,
        "timestamp": "2025-12-16T10:53:45.867570+00:00",
        "meta_object_name": "COSMOS 2251 DEB",
        "meta_object_id": "1993-036APL",
        "meta_epoch": "2025-12-10T17:55:05.054592",
        "meta_mean_motion": 13.57151778,
        "meta_eccentricity": 0.03880721,
        "meta_inclination": 73.8635,
        "meta_ra_of_asc_node": 162.6479,
        "meta_arg_of_pericenter": 274.7966,
        "meta_mean_anomaly": 80.8943,
        "meta_ephemeris_type": 0,
        "meta_classification_type": "U",
        "meta_norad_cat_id": 35669,
        "meta_element_set_no": 999,
        "meta_rev_at_epoch": 60762,
        "meta_bstar": 0.0012765304,
        "meta_mean_motion_dot": 1.459e-05,
        "meta_mean_motion_ddot": 0,
        "tle_line1": "1 35669U 93036APL 25344.74658628  .00001459  00000+0  12765-2 0  9995",
        "tle_line2": "2 35669  73.8635 162.6479 0388072 274.7966  80.8943 13.57151778607625"
      },
      "geometry": {
        "type": "Point",
        "coordinates": [
          -37.023800585452435,
          31.862058370208032
        ]
      }
    },
    {
      "type": "Feature",
      "properties": {
        "norad_id": 35670,
        "name": "COSMOS 2251 DEB",
        "group": "cosmos-2251-debris",
        "lat": 49.36541294030939,
        "lon": -142.7294708028804,
        "alt_km": 589.9678038341499,
        "timestamp": "2025-12-16T10:53:45.867580+00:00",
        "meta_object_name": "COSMOS 2251 DEB",
        "meta_object_id": "1993-036APM",
        "meta_epoch": "2025-12-14T21:21:55.582560",
        "meta_mean_motion": 14.93987644,
        "meta_eccentricity": 0.0037863,
        "meta_inclination": 73.8951,
        "meta_ra_of_asc_node": 60.1197,
        "meta_arg_of_pericenter": 20.3241,
        "meta_mean_anomaly": 339.9438,
        "meta_ephemeris_type": 0,
        "meta_classification_type": "U",
        "meta_norad_cat_id": 35670,
        "meta_element_set_no": 999,
        "meta_rev_at_epoch": 87759,
        "meta_bstar": 0.00068268578,
        "meta_mean_motion_dot": 7.347e-05,
        "meta_mean_motion_ddot": 0,
        "tle_line1": "1 35670U 93036APM 25348.89022665  .00007347  00000+0  68269-3 0  9996",
        "tle_line2": "2 35670  73.8951  60.1197 0037863  20.3241 339.9438 14.93987644877599"
      },
      "geometry": {
        "type": "Point",
        "coordinates": [
          -142.7294708028804,
          49.36541294030939
        ]
      }
    },
    {
      "type": "Feature",
      "properties": {
        "norad_id": 35671,
        "name": "COSMOS 2251 DEB",
        "group": "cosmos-2251-debris",
        "lat": -41.04707498311438,
        "lon": 57.903516846552215,
        "alt_km": 727.7829947542941,
        "timestamp": "2025-12-16T10:53:45.867589+00:00",
        "meta_object_name": "COSMOS 2251 DEB",
        "meta_object_id": "1993-036APN",
        "meta_epoch": "2025-12-12T06:07:34.704192",
        "meta_mean_motion": 14.48347657,
        "meta_eccentricity": 0.00414664,
        "meta_inclination": 74.018,
        "meta_ra_of_asc_node": 80.2233,
        "meta_arg_of_pericenter": 254.3311,
        "meta_mean_anomaly": 138.579,
        "meta_ephemeris_type": 0,
        "meta_classification_type": "U",
        "meta_norad_cat_id": 35671,
        "meta_element_set_no": 999,
        "meta_rev_at_epoch": 86756,
        "meta_bstar": 0.00036575096,
        "meta_mean_motion_dot": 1.355e-05,
        "meta_mean_motion_ddot": 0,
        "tle_line1": "1 35671U 93036APN 25346.25526278  .00001355  00000+0  36575-3 0  9992",
        "tle_line2": "2 35671  74.0180  80.2233 0041466 254.3311 138.5790 14.48347657867566"
      },
      "geometry": {
        "type": "Point",
        "coordinates": [
          57.903516846552215,
          -41.04707498311438
        ]
      }
    },
    {
      "type": "Feature",
      "properties": {
        "norad_id": 35674,
        "name": "COSMOS 2251 DEB",
        "group": "cosmos-2251-debris",
        "lat": -74.049312903968,
        "lon": -140.93889493773767,
        "alt_km": 710.3617866102568,
        "timestamp": "2025-12-16T10:53:45.867600+00:00",
        "meta_object_name": "COSMOS 2251 DEB",
        "meta_object_id": "1993-036APR",
        "meta_epoch": "2025-12-15T15:29:32.958240",
        "meta_mean_motion": 14.54257795,
        "meta_eccentricity": 0.00961311,
        "meta_inclination": 74.0597,
        "meta_ra_of_asc_node": 311.022,
        "meta_arg_of_pericenter": 355.1277,
        "meta_mean_anomaly": 4.8939,
        "meta_ephemeris_type": 0,
        "meta_classification_type": "U",
        "meta_norad_cat_id": 35674,
        "meta_element_set_no": 999,
        "meta_rev_at_epoch": 86153,
        "meta_bstar": 0.0013284232,
        "meta_mean_motion_dot": 5.963e-05,
        "meta_mean_motion_ddot": 0,
        "tle_line1": "1 35674U 93036APR 25349.64552035  .00005963  00000+0  13284-2 0  9991",
        "tle_line2": "2 35674  74.0597 311.0220 0096131 355.1277   4.8939 14.54257795861533"
      },
      "geometry": {
        "type": "Point",
        "coordinates": [
          -140.93889493773767,
          -74.049312903968
        ]
      }
    },
    {
      "type": "Feature",
      "properties": {
        "norad_id": 35701,
        "name": "COSMOS 2251 DEB",
        "group": "cosmos-2251-debris",
        "lat": -42.951865195611866,
        "lon": -79.35100133405284,
        "alt_km": 1176.205611896332,
        "timestamp": "2025-12-16T10:53:45.867610+00:00",
        "meta_object_name": "COSMOS 2251 DEB",
        "meta_object_id": "1993-036APW",
        "meta_epoch": "2025-12-06T05:57:57.623904",
        "meta_mean_motion": 13.80843435,
        "meta_eccentricity": 0.02897209,
        "meta_inclination": 74.0028,
        "meta_ra_of_asc_node": 313.2955,
        "meta_arg_of_pericenter": 164.0681,
        "meta_mean_anomaly": 196.98,
        "meta_ephemeris_type": 0,
        "meta_classification_type": "U",
        "meta_norad_cat_id": 35701,
        "meta_element_set_no": 999,
        "meta_rev_at_epoch": 62069,
        "meta_bstar": 0.0021223911,
        "meta_mean_motion_dot": 3.05e-05,
        "meta_mean_motion_ddot": 0,
        "tle_line1": "1 35701U 93036APW 25340.24858361  .00003050  00000+0  21224-2 0  9998",
        "tle_line2": "2 35701  74.0028 313.2955 0289720 164.0681 196.9800 13.80843435620696"
      },
      "geometry": {
        "type": "Point",
        "coordinates": [
          -79.35100133405284,
          -42.951865195611866
        ]
      }
    },
    {
      "type": "Feature",
      "properties": {
        "norad_id": 35703,
        "name": "COSMOS 2251 DEB",
        "group": "cosmos-2251-debris",
        "lat": -5.881217026185497,
        "lon": 33.64262409397007,
        "alt_km": 615.2880944776971,
        "timestamp": "2025-12-16T10:53:45.867621+00:00",
        "meta_object_name": "COSMOS 2251 DEB",
        "meta_object_id": "1993-036APY",
        "meta_epoch": "2025-12-15T20:25:28.550496",
        "meta_mean_motion": 14.90392539,
        "meta_eccentricity": 0.00646445,
        "meta_inclination": 74.0433,
        "meta_ra_of_asc_node": 36.5378,
        "meta_arg_of_pericenter": 105.389,
        "meta_mean_anomaly": 255.4446,
        "meta_ephemeris_type": 0,
        "meta_classification_type": "U",
        "meta_norad_cat_id": 35703,
        "meta_element_set_no": 999,
        "meta_rev_at_epoch": 66662,
        "meta_bstar": 0.00037651671,
        "meta_mean_motion_dot": 3.778e-05,
        "meta_mean_motion_ddot": 0,
        "tle_line1": "1 35703U 93036APY 25349.85102489  .00003778  00000+0  37652-3 0  9999",
        "tle_line2": "2 35703  74.0433  36.5378 0064644 105.3890 255.4446 14.90392539666624"
      },
      "geometry": {
        "type": "Point",
        "coordinates": [
          33.64262409397007,
          -5.881217026185497
        ]
      }
    },
    {
      "type": "Feature",
      "properties": {
        "norad_id": 35705,
        "name": "COSMOS 2251 DEB",
        "group": "cosmos-2251-debris",
        "lat": -69.3077144559728,
        "lon": -3.069445913400626,
        "alt_km": 683.6121283862703,
        "timestamp": "2025-12-16T10:53:45.867643+00:00",
        "meta_object_name": "COSMOS 2251 DEB",
        "meta_object_id": "1993-036AQA",
        "meta_epoch": "2025-12-13T16:30:25.570944",
        "meta_mean_motion": 14.72285684,
        "meta_eccentricity": 0.00330748,
        "meta_inclination": 74.2763,
        "meta_ra_of_asc_node": 133.9994,
        "meta_arg_of_pericenter": 83.0917,
        "meta_mean_anomaly": 277.4017,
        "meta_ephemeris_type": 0,
        "meta_classification_type": "U",
        "meta_norad_cat_id": 35705,
        "meta_element_set_no": 999,
        "meta_rev_at_epoch": 85940,
        "meta_bstar": 0.003032246,
        "meta_mean_motion_dot": 0.00019351,
        "meta_mean_motion_ddot": 0,
        "tle_line1": "1 35705U 93036AQA 25347.68779596  .00019351  00000+0  30322-2 0  9999",
        "tle_line2": "2 35705  74.2763 133.9994 0033074  83.0917 277.4017 14.72285684859405"
      },
      "geometry": {
        "type": "Point",
        "coordinates": [
          -3.069445913400626,
          -69.3077144559728
        ]
      }
    }
  ]
}